[
    {
        "Altitude(m)": 556250.4420758582,
        "Argument of Periapsis(deg)": 0.019868973332140504,
        "Eccentricity": 0.0,
        "Inclination(deg)": 53.0,
        "Latitude(deg)": -10.759228668573607,
        "Longitude(deg)": 169.43235815408482,
        "Mean Anomaly(deg)": -13.361521397267175,
        "RAAN(deg)": 279.97043010558406,
        "Satellite Name": "Starlink Shell 1 1251",
        "Satellite Number": 1251,
        "Semi-Major Axis(m)": 6931778.249405717,
        "Time(s)": 570
    },
    {
        "Altitude(m)": 556130.2969382574,
        "Argument of Periapsis(deg)": 0.02021755181165174,
        "Eccentricity": 0.0,
        "Inclination(deg)": 53.0,
        "Latitude(deg)": -10.260591381292464,
        "Longitude(deg)": 169.7804102504183,
        "Mean Anomaly(deg)": -12.73469019371048,
        "RAAN(deg)": 279.96991133550654,
        "Satellite Name": "Starlink Shell 1 1251",
        "Satellite Number": 1251,
        "Semi-Major Axis(m)": 6931778.249405717,
        "Time(s)": 580
    },
    {
        "Altitude(m)": 556012.5101553602,
        "Argument of Periapsis(deg)": 0.020566130291162974,
        "Eccentricity": 0.0,
        "Inclination(deg)": 53.0,
        "Latitude(deg)": -9.761460718983342,
        "Longitude(deg)": 170.12725618724937,
        "Mean Anomaly(deg)": -12.107858990153733,
        "RAAN(deg)": 279.96939256542913,
        "Satellite Name": "Starlink Shell 1 1251",
        "Satellite Number": 1251,
        "Semi-Major Axis(m)": 6931778.249405717,
        "Time(s)": 590
    },
    {
        "Altitude(m)": 555897.1156028382,
        "Argument of Periapsis(deg)": 0.020914708770674213,
        "Eccentricity": 0.0,
        "Inclination(deg)": 53.0,
        "Latitude(deg)": -9.26186188918935,
        "Longitude(deg)": 170.47295842389386,
        "Mean Anomaly(deg)": -11.481027786596986,
        "RAAN(deg)": 279.9688737953516,
        "Satellite Name": "Starlink Shell 1 1251",
        "Satellite Number": 1251,
        "Semi-Major Axis(m)": 6931778.249405717,
        "Time(s)": 600
    },
    {
        "Altitude(m)": 555784.1459502424,
        "Argument of Periapsis(deg)": 0.021263287250185448,
        "Eccentricity": 0.0,
        "Inclination(deg)": 53.0,
        "Latitude(deg)": -8.761819862958452,
        "Longitude(deg)": 170.81757892798922,
        "Mean Anomaly(deg)": -10.854196583040292,
        "RAAN(deg)": 279.96835502527415,
        "Satellite Name": "Starlink Shell 1 1251",
        "Satellite Number": 1251,
        "Semi-Major Axis(m)": 6931778.249405717,
        "Time(s)": 610
    },
    {
        "Altitude(m)": 555673.632647445,
        "Argument of Periapsis(deg)": 0.021611865729696686,
        "Eccentricity": 0.0,
        "Inclination(deg)": 53.0,
        "Latitude(deg)": -8.26135938851689,
        "Longitude(deg)": 171.1611797060198,
        "Mean Anomaly(deg)": -10.227365379483595,
        "RAAN(deg)": 279.96783625519674,
        "Satellite Name": "Starlink Shell 1 1251",
        "Satellite Number": 1251,
        "Semi-Major Axis(m)": 6931778.249405717,
        "Time(s)": 620
    },
    {
        "Altitude(m)": 555565.6059116999,
        "Argument of Periapsis(deg)": 0.02196044420920792,
        "Eccentricity": 0.0,
        "Inclination(deg)": 53.0,
        "Latitude(deg)": -7.760505004730542,
        "Longitude(deg)": 171.5038216527888,
        "Mean Anomaly(deg)": -9.6005341759269,
        "RAAN(deg)": 279.9673174851192,
        "Satellite Name": "Starlink Shell 1 1251",
        "Satellite Number": 1251,
        "Semi-Major Axis(m)": 6931778.249405717,
        "Time(s)": 630
    },
    {
        "Altitude(m)": 555460.0947152893,
        "Argument of Periapsis(deg)": 0.02230902268871916,
        "Eccentricity": 0.0,
        "Inclination(deg)": 53.0,
        "Latitude(deg)": -7.25928105437198,
        "Longitude(deg)": 171.84556592226238,
        "Mean Anomaly(deg)": -8.973702972370205,
        "RAAN(deg)": 279.9667987150417,
        "Satellite Name": "Starlink Shell 1 1251",
        "Satellite Number": 1251,
        "Semi-Major Axis(m)": 6931778.249405717,
        "Time(s)": 640
    },
    {
        "Altitude(m)": 555357.1267738161,
        "Argument of Periapsis(deg)": 0.022657601168230398,
        "Eccentricity": 0.0,
        "Inclination(deg)": 53.0,
        "Latitude(deg)": -6.757711697197432,
        "Longitude(deg)": 172.18647277687347,
        "Mean Anomaly(deg)": -8.346871768813507,
        "RAAN(deg)": 279.9662799449643,
        "Satellite Name": "Starlink Shell 1 1251",
        "Satellite Number": 1251,
        "Semi-Major Axis(m)": 6931778.249405717,
        "Time(s)": 650
    },
    {
        "Altitude(m)": 555256.7285351072,
        "Argument of Periapsis(deg)": 0.023006179647741636,
        "Eccentricity": 0.0,
        "Inclination(deg)": 53.0,
        "Latitude(deg)": -6.255820922852603,
        "Longitude(deg)": 172.52660211771382,
        "Mean Anomaly(deg)": -7.720040565256812,
        "RAAN(deg)": 279.9657611748868,
        "Satellite Name": "Starlink Shell 1 1251",
        "Satellite Number": 1251,
        "Semi-Major Axis(m)": 6931778.249405717,
        "Time(s)": 660
    },
    {
        "Altitude(m)": 555158.9251687552,
        "Argument of Periapsis(deg)": 0.023354758127252868,
        "Eccentricity": 0.0,
        "Inclination(deg)": 53.0,
        "Latitude(deg)": -5.753632563615577,
        "Longitude(deg)": 172.866014014645,
        "Mean Anomaly(deg)": -7.093209361699964,
        "RAAN(deg)": 279.9652424048093,
        "Satellite Name": "Starlink Shell 1 1251",
        "Satellite Number": 1251,
        "Semi-Major Axis(m)": 6931778.249405717,
        "Time(s)": 670
    },
    {
        "Altitude(m)": 555063.740556295,
        "Argument of Periapsis(deg)": 0.023703336606764106,
        "Eccentricity": 0.0,
        "Inclination(deg)": 53.0,
        "Latitude(deg)": -5.251170306987618,
        "Longitude(deg)": 173.2047677234574,
        "Mean Anomaly(deg)": -6.4663781581433195,
        "RAAN(deg)": 279.96472363473185,
        "Satellite Name": "Starlink Shell 1 1251",
        "Satellite Number": 1251,
        "Semi-Major Axis(m)": 6931778.249405717,
        "Time(s)": 680
    },
    {
        "Altitude(m)": 554971.1972820327,
        "Argument of Periapsis(deg)": 0.024051915086275345,
        "Eccentricity": 0.0,
        "Inclination(deg)": 53.0,
        "Latitude(deg)": -4.748457708145647,
        "Longitude(deg)": 173.54292221582887,
        "Mean Anomaly(deg)": -5.839546954586624,
        "RAAN(deg)": 279.9642048646544,
        "Satellite Name": "Starlink Shell 1 1251",
        "Satellite Number": 1251,
        "Semi-Major Axis(m)": 6931778.249405717,
        "Time(s)": 690
    },
    {
        "Altitude(m)": 554881.3166245042,
        "Argument of Periapsis(deg)": 0.024400493565786583,
        "Eccentricity": 0.0,
        "Inclination(deg)": 53.0,
        "Latitude(deg)": -4.245518202269429,
        "Longitude(deg)": 173.88053670921244,
        "Mean Anomaly(deg)": -5.212715751029878,
        "RAAN(deg)": 279.9636860945769,
        "Satellite Name": "Starlink Shell 1 1251",
        "Satellite Number": 1251,
        "Semi-Major Axis(m)": 6931778.249405717,
        "Time(s)": 700
    },
    {
        "Altitude(m)": 554794.1185486066,
        "Argument of Periapsis(deg)": 0.024749072045297815,
        "Eccentricity": 0.0,
        "Inclination(deg)": 53.0,
        "Latitude(deg)": -3.742375116749241,
        "Longitude(deg)": 174.2176696837839,
        "Mean Anomaly(deg)": -4.585884547473131,
        "RAAN(deg)": 279.96316732449947,
        "Satellite Name": "Starlink Shell 1 1251",
        "Satellite Number": 1251,
        "Semi-Major Axis(m)": 6931778.249405717,
        "Time(s)": 710
    },
    {
        "Altitude(m)": 554709.6216983696,
        "Argument of Periapsis(deg)": 0.025097650524809053,
        "Eccentricity": 0.0,
        "Inclination(deg)": 53.0,
        "Latitude(deg)": -3.239051683291785,
        "Longitude(deg)": 174.55437941220418,
        "Mean Anomaly(deg)": -3.959053343916486,
        "RAAN(deg)": 279.96264855442195,
        "Satellite Name": "Starlink Shell 1 1251",
        "Satellite Number": 1251,
        "Semi-Major Axis(m)": 6931778.249405717,
        "Time(s)": 720
    },
    {
        "Altitude(m)": 554627.843390408,
        "Argument of Periapsis(deg)": 0.02544622900432029,
        "Eccentricity": 0.0,
        "Inclination(deg)": 53.0,
        "Latitude(deg)": -2.7355710499335224,
        "Longitude(deg)": 174.8907244893254,
        "Mean Anomaly(deg)": -3.3322221403597903,
        "RAAN(deg)": 279.9621297843445,
        "Satellite Name": "Starlink Shell 1 1251",
        "Satellite Number": 1251,
        "Semi-Major Axis(m)": 6931778.249405717,
        "Time(s)": 730
    },
    {
        "Altitude(m)": 554548.7996080043,
        "Argument of Periapsis(deg)": 0.02579480748383153,
        "Eccentricity": 0.0,
        "Inclination(deg)": 53.0,
        "Latitude(deg)": -2.2319562929697905,
        "Longitude(deg)": 175.22676284897614,
        "Mean Anomaly(deg)": -2.705390936803044,
        "RAAN(deg)": 279.961611014267,
        "Satellite Name": "Starlink Shell 1 1251",
        "Satellite Number": 1251,
        "Semi-Major Axis(m)": 6931778.249405717,
        "Time(s)": 740
    },
    {
        "Altitude(m)": 554472.5049959057,
        "Argument of Periapsis(deg)": 0.026143385963342765,
        "Eccentricity": 0.0,
        "Inclination(deg)": 53.0,
        "Latitude(deg)": -1.728230428816479,
        "Longitude(deg)": 175.5625522935767,
        "Mean Anomaly(deg)": -2.0785597332462973,
        "RAAN(deg)": 279.96109224418956,
        "Satellite Name": "Starlink Shell 1 1251",
        "Satellite Number": 1251,
        "Semi-Major Axis(m)": 6931778.249405717,
        "Time(s)": 750
    }
]